{
    "links": {
        "self": "http://www.neowsapp.com/rest/v1/neo/3757746?api_key=iIulBulltgU6a56xZRHN4H3l9WmuAYTsLGpBGhQ2"
    },
    "id": "3757746",
    "neo_reference_id": "3757746",
    "name": "(2016 QK10)",
    "designation": "2016 QK10",
    "nasa_jpl_url": "http://ssd.jpl.nasa.gov/sbdb.cgi?sstr=3757746",
    "absolute_magnitude_h": 25.0,
    "estimated_diameter": {
        "kilometers": {
            "estimated_diameter_min": 0.02658,
            "estimated_diameter_max": 0.0594346868
        },
        "meters": {
            "estimated_diameter_min": 26.58,
            "estimated_diameter_max": 59.4346868419
        },
        "miles": {
            "estimated_diameter_min": 0.0165160412,
            "estimated_diameter_max": 0.0369309908
        },
        "feet": {
            "estimated_diameter_min": 87.2047272,
            "estimated_diameter_max": 194.9956979785
        }
    },
    "is_potentially_hazardous_asteroid": false,
    "close_approach_data": [
        {
            "close_approach_date": "1906-09-13",
            "close_approach_date_full": "1906-Sep-13 09:12",
            "epoch_date_close_approach": -1997621280000,
            "relative_velocity": {
                "kilometers_per_second": "4.333562263",
                "kilometers_per_hour": "15600.8241467197",
                "miles_per_hour": "9693.7454260548"
            },
            "miss_distance": {
                "astronomical": "0.1072469642",
                "lunar": "41.7190690738",
                "kilometers": "16043917.408286254",
                "miles": "9969227.9982641452"
            },
            "orbiting_body": "Earth"
        },
        {
            "close_approach_date": "1954-08-19",
            "close_approach_date_full": "1954-Aug-19 09:14",
            "epoch_date_close_approach": -485016360000,
            "relative_velocity": {
                "kilometers_per_second": "10.7926940576",
                "kilometers_per_hour": "38853.6986075242",
                "miles_per_hour": "24142.1773375474"
            },
            "miss_distance": {
                "astronomical": "0.2980723816",
                "lunar": "115.9501564424",
                "kilometers": "44590993.393187192",
                "miles": "27707558.4779675696"
            },
            "orbiting_body": "Earth"
        },
        {
            "close_approach_date": "1968-10-13",
            "close_approach_date_full": "1968-Oct-13 19:00",
            "epoch_date_close_approach": -38379600000,
            "relative_velocity": {
                "kilometers_per_second": "13.6385641089",
                "kilometers_per_hour": "49098.8307920785",
                "miles_per_hour": "30508.1040552223"
            },
            "miss_distance": {
                "astronomical": "0.3931354286",
                "lunar": "152.9296817254",
                "kilometers": "58812222.740097082",
                "miles": "36544220.6326684516"
            },
            "orbiting_body": "Earth"
        },
        {
            "close_approach_date": "2016-09-12",
            "close_approach_date_full": "2016-Sep-12 05:53",
            "epoch_date_close_approach": 1473659580000,
            "relative_velocity": {
                "kilometers_per_second": "4.445849153",
                "kilometers_per_hour": "16005.0569507455",
                "miles_per_hour": "9944.9199703119"
            },
            "miss_distance": {
                "astronomical": "0.1062994137",
                "lunar": "41.3504719293",
                "kilometers": "15902165.871768819",
                "miles": "9881147.6778109422"
            },
            "orbiting_body": "Earth"
        }
    ],
    "orbital_data": {
        "orbit_id": "12",
        "orbit_determination_date": "2017-04-06 08:24:24",
        "first_observation_date": "2016-08-26",
        "last_observation_date": "2016-11-07",
        "data_arc_in_days": 73,
        "observations_used": 49,
        "orbit_uncertainty": "6",
        "minimum_orbit_intersection": ".107366",
        "jupiter_tisserand_invariant": "3.718",
        "epoch_osculation": "2459000.5",
        "eccentricity": ".4432340078430992",
        "semi_major_axis": "1.995117247716479",
        "inclination": "1.15604711648219",
        "ascending_node_longitude": "227.18387165229",
        "orbital_period": "1029.321541012577",
        "perihelion_distance": "1.110813433894211",
        "perihelion_argument": "126.8988545991086",
        "aphelion_distance": "2.879421061538748",
        "perihelion_time": "2458676.174437089649",
        "mean_anomaly": "113.4312243508171",
        "mean_motion": ".3497449394150018",
        "equinox": "J2000",
        "orbit_class": {
            "orbit_class_type": "AMO",
            "orbit_class_description": "Near-Earth asteroid orbits similar to that of 1221 Amor",
            "orbit_class_range": "1.017 AU < q (perihelion) < 1.3 AU"
        }
    },
    "is_sentry_object": false
}